GLOBALSTAR M057         
1 25943U 99058A   25239.84589873 -.00000123  00000+0 -27130-3 0  9990
2 25943  51.9979 144.8369 0002524 147.0162 213.0845 12.24826677175713
GLOBALSTAR M059         
1 25944U 99058B   25239.63189759 -.00000020  00000+0  82107-3 0  9997
2 25944  52.0044  13.8910 0001258  98.4284 274.3716 11.99983281582628
GLOBALSTAR M056         
1 25945U 99058C   25239.87378789 -.00000105  00000+0 -20307-3 0  9996
2 25945  51.9992  13.3575 0000651  18.5262 121.6101 12.04779274171264
GLOBALSTAR M031         
1 25946U 99058D   25239.92344295 -.00000155  00000+0 -65271-3 0  9992
2 25946  51.9943 261.2589 0001196 327.7324 100.5259 12.16040600173279
GLOBALSTAR M039         
1 25961U 99062A   25239.42699488 -.00000115  00000+0 -65188-4 0  9990
2 25961  51.9850  51.7316 0003160 131.4638 228.6501 12.62330884189214
GLOBALSTAR M034         
1 25962U 99062B   25239.89409586 -.00000069  00000+0  18921-3 0  9999
2 25962  51.9855 184.9895 0013752 176.1347 221.3465 11.79448015146857
GLOBALSTAR M029         
1 25963U 99062C   25239.84935684 -.00000080  00000+0  71232-4 0  9996
2 25963  51.9783 261.2805 0002465 257.4785 274.6086 11.99900156177727
GLOBALSTAR M061         
1 25964U 99062D   25239.63097169 -.00000061  00000+0  31300-3 0  9991
2 25964  51.9827  10.6573 0006721  99.7647 273.1816 11.76775715129591
